NORAD_CAT_ID,OBJECT_NAME,OBJECT_TYPE,EPOCH,MEAN_MOTION,ECCENTRICITY,INCLINATION,RA_OF_ASC_NODE,ARG_OF_PERICENTER,MEAN_ANOMALY,BSTAR,MEAN_MOTION_DOT,MEAN_MOTION_DDOT,TLE_LINE0,TLE_LINE1,TLE_LINE2,SEMIMAJOR_AXIS,PERIOD,APOGEE,PERIGEE,DECAYED
51139.0,STARLINK-3172,PAYLOAD,2023-06-06 09:30:48,15.08840117,0.0001065,53.2155,141.0357,81.8637,278.2476,6.2108e-05,7.01e-06,0.0,0 STARLINK-3172,1 51139U 22005AM  23157.39639425  .00000701  00000-0  62108-4 0  9996,2 51139  53.2155 141.0357 0001065  81.8637 278.2476 15.08840117 77788,6917.88,95.438,540.482,539.008,0.0
51139.0,STARLINK-3172,PAYLOAD,2023-06-06 22:13:54,15.08834041,0.0001078,53.2153,138.6562,83.283,276.8285,2.6842e-06,-2.45e-06,0.0,0 STARLINK-3172,1 51139U 22005AM  23157.92632149 -.00000245  00000-0  26842-5 0  9991,2 51139  53.2153 138.6562 0001078  83.2830 276.8285 15.08834041 76758,6917.899,95.438,540.509,539.018,0.0
51139.0,STARLINK-3172,PAYLOAD,2023-06-06 23:49:17,15.08833906,0.0001133,53.2161,138.3591,84.2847,275.8274,-1.5511e-07,-2.9e-06,0.0,0 STARLINK-3172,1 51139U 22005AM  23157.99256197 -.00000290  00000-0 -15511-6 0  9996,2 51139  53.2161 138.3591 0001133  84.2847 275.8274 15.08833906 77877,6917.899,95.438,540.548,538.98,0.0
51139.0,STARLINK-3172,PAYLOAD,2023-06-07 07:46:12,15.0883753,0.0001138,53.216,136.872,84.4944,275.6178,2.6873e-05,1.4e-06,0.0,0 STARLINK-3172,1 51139U 22005AM  23158.32375965  .00000140  00000-0  26873-4 0  9992,2 51139  53.2160 136.8720 0001138  84.4944 275.6178 15.08837530 76819,6917.888,95.438,540.54,538.966,0.0
51139.0,STARLINK-3172,PAYLOAD,2023-06-07 15:43:08,15.08835689,0.0001155,53.2161,135.3851,83.6008,276.5115,2.5135e-05,1.12e-06,0.0,0 STARLINK-3172,1 51139U 22005AM  23158.65496168  .00000112  00000-0  25135-4 0  9996,2 51139  53.2161 135.3851 0001155  83.6008 276.5115 15.08835689 76869,6917.894,95.438,540.558,538.96,0.0
51139.0,STARLINK-3172,PAYLOAD,2023-06-08 04:26:13,15.08838105,0.0001171,53.216,133.0058,84.4722,275.6404,2.6409e-05,1.32e-06,0.0,0 STARLINK-3172,1 51139U 22005AM  23159.18488158  .00000132  00000-0  26409-4 0  9992,2 51139  53.2160 133.0058 0001171  84.4722 275.6404 15.08838105 78052,6917.886,95.438,540.561,538.941,0.0
51139.0,STARLINK-3172,PAYLOAD,2023-06-09 07:27:46,15.08849311,0.0001221,53.2163,127.9508,84.4746,275.6385,0.00013305,1.831e-05,0.0,0 STARLINK-3172,1 51139U 22005AM  23160.31095070  .00001831  00000-0  13305-3 0  9993,2 51139  53.2163 127.9508 0001221  84.4746 275.6385 15.08849311 78227,6917.852,95.437,540.562,538.872,0.0
51139.0,STARLINK-3172,PAYLOAD,2023-06-09 15:24:42,15.08840681,0.0001205,53.2165,126.4612,95.2084,264.9045,6.8077e-05,7.96e-06,0.0,0 STARLINK-3172,1 51139U 22005AM  23160.64215671  .00000796  00000-0  68077-4 0  9996,2 51139  53.2165 126.4612 0001205  95.2084 264.9045 15.08840681 78276,6917.878,95.438,540.577,538.91,0.0
51139.0,STARLINK-3172,PAYLOAD,2023-06-09 21:46:15,15.08836321,0.0001339,53.2157,125.2688,124.0984,236.0135,2.4366e-05,1e-06,0.0,0 STARLINK-3172,1 51139U 22005AM  23160.90712010  .00000100  00000-0  24366-4 0  9996,2 51139  53.2157 125.2688 0001339 124.0984 236.0135 15.08836321 77203,6917.892,95.438,540.683,538.83,0.0
51139.0,STARLINK-3172,PAYLOAD,2023-06-10 07:18:33,15.08840617,0.0001329,53.2169,123.4899,96.3303,263.7841,2.2473e-05,7e-07,0.0,0 STARLINK-3172,1 51139U 22005AM  23161.30455998  .00000070  00000-0  22473-4 0  9993,2 51139  53.2169 123.4899 0001329  96.3303 263.7841 15.08840617 77265,6917.879,95.438,540.663,538.824,0.0
51139.0,STARLINK-3172,PAYLOAD,2023-06-10 21:37:02,15.08837746,0.0001285,53.2171,120.8131,101.5315,258.5821,-4.3648e-05,-9.82e-06,0.0,0 STARLINK-3172,1 51139U 22005AM  23161.90072424 -.00000982  00000-0 -43648-4 0  9999,2 51139  53.2171 120.8131 0001285 101.5315 258.5821 15.08837746 77350,6917.887,95.438,540.641,538.863,0.0
51139.0,STARLINK-3172,PAYLOAD,2023-06-11 03:58:35,15.08838932,0.0001147,53.2171,119.6268,89.1575,270.9548,-1.2535e-05,-4.87e-06,0.0,0 STARLINK-3172,1 51139U 22005AM  23162.16568340 -.00000487  00000-0 -12535-4 0  9996,2 51139  53.2171 119.6268 0001147  89.1575 270.9548 15.08838932 78503,6917.884,95.438,540.542,538.955,0.0
51139.0,STARLINK-3172,PAYLOAD,2023-06-11 07:09:21,15.08840301,0.0001179,53.2157,119.031,108.8106,251.3014,-8.3481e-06,-4.21e-06,0.0,0 STARLINK-3172,1 51139U 22005AM  23162.29816152 -.00000421  00000-0 -83481-5 0  9994,2 51139  53.2157 119.0310 0001179 108.8106 251.3014 15.08840301 77416,6917.879,95.438,540.56,538.929,0.0
51139.0,STARLINK-3172,PAYLOAD,2023-06-11 21:27:49,15.08835734,0.0001209,53.2158,116.3544,92.9815,267.1315,9.1569e-05,1.17e-05,0.0,0 STARLINK-3172,1 51139U 22005AM  23162.89432250  .00001170  00000-0  91569-4 0  9998,2 51139  53.2158 116.3544 0001209  92.9815 267.1315 15.08835734 77503,6917.893,95.438,540.595,538.922,0.0
51139.0,STARLINK-3172,PAYLOAD,2023-06-12 03:49:21,15.08841801,0.0001205,53.2161,115.1651,92.8603,267.2527,0.00013363,1.84e-05,0.0,0 STARLINK-3172,1 51139U 22005AM  23163.15927797  .00001840  00000-0  13363-3 0  9992,2 51139  53.2161 115.1651 0001205  92.8603 267.2527 15.08841801 78658,6917.875,95.437,540.573,538.906,0.0
51139.0,STARLINK-3172,PAYLOAD,2023-06-12 13:21:40,15.08837578,0.0001177,53.216,113.3812,90.054,270.0587,7.0539e-05,8.35e-06,0.0,0 STARLINK-3172,1 51139U 22005AM  23163.55672278  .00000835  00000-0  70539-4 0  9999,2 51139  53.2160 113.3812 0001177  90.0540 270.0587 15.08837578 77602,6917.888,95.438,540.567,538.939,0.0
51139.0,STARLINK-3172,PAYLOAD,2023-06-12 21:18:37,15.08830738,0.000124,53.2164,111.8944,91.2209,268.8925,1.1787e-05,-1e-06,0.0,0 STARLINK-3172,1 51139U 22005AM  23163.88793049 -.00000100  00000-0  11787-4 0  9991,2 51139  53.2164 111.8944 0001240  91.2209 268.8925 15.08830738 77658,6917.909,95.438,540.632,538.916,0.0
51139.0,STARLINK-3172,PAYLOAD,2023-06-13 05:15:32,15.08834275,0.0001199,53.2158,110.4086,97.7824,262.3305,4.5522e-05,4.37e-06,0.0,0 STARLINK-3172,1 51139U 22005AM  23164.21912832  .00000437  00000-0  45522-4 0  9998,2 51139  53.2158 110.4086 0001199  97.7824 262.3305 15.08834275 77707,6917.898,95.438,540.592,538.933,0.0
51139.0,STARLINK-3172,PAYLOAD,2023-06-14 05:06:19,15.08845129,0.000108,53.2169,105.947,90.9932,269.1184,4.1616e-05,3.75e-06,0.0,0 STARLINK-3172,1 51139U 22005AM  23165.21272360  .00000375  00000-0  41616-4 0  9995,2 51139  53.2169 105.9470 0001080  90.9932 269.1184 15.08845129 78968,6917.865,95.437,540.477,538.983,0.0
51139.0,STARLINK-3172,PAYLOAD,2023-06-14 19:24:48,15.08832552,0.0001041,53.2167,103.2709,94.0325,266.0787,9.6456e-05,1.247e-05,0.0,0 STARLINK-3172,1 51139U 22005AM  23165.80889030  .00001247  00000-0  96456-4 0  9999,2 51139  53.2167 103.2709 0001041  94.0325 266.0787 15.08832552 77948,6917.903,95.438,540.488,539.048,0.0
51139.0,STARLINK-3172,PAYLOAD,2023-06-15 01:46:20,15.088391,0.0001075,53.2167,102.0805,131.0122,229.0963,8.9799e-05,1.142e-05,0.0,0 STARLINK-3172,1 51139U 22005AM  23166.07384567  .00001142  00000-0  89799-4 0  9990,2 51139  53.2167 102.0805 0001075 131.0122 229.0963 15.08839100 79095,6917.883,95.438,540.492,539.004,0.0
51139.0,STARLINK-3172,PAYLOAD,2023-06-15 04:57:06,15.0884057,0.0001068,53.2168,101.4852,111.3437,248.7669,0.00011448,1.535e-05,0.0,0 STARLINK-3172,1 51139U 22005AM  23166.20632544  .00001535  00000-0  11448-3 0  9997,2 51139  53.2168 101.4852 0001068 111.3437 248.7669 15.08840570 78007,6917.879,95.438,540.482,539.005,0.0
51139.0,STARLINK-3172,PAYLOAD,2023-06-16 01:37:07,15.08839427,0.0001055,53.2172,97.6198,94.6369,265.4744,2.077e-05,4.3e-07,0.0,0 STARLINK-3172,1 51139U 22005AM  23167.06745051  .00000043  00000-0  20770-4 0  9992,2 51139  53.2172  97.6198 0001055  94.6369 265.4744 15.08839427 79240,6917.882,95.438,540.477,539.017,0.0
51139.0,STARLINK-3172,PAYLOAD,2023-06-16 04:47:53,15.08850749,0.0001108,53.2173,97.0237,102.4922,257.6194,0.0001077,1.427e-05,0.0,0 STARLINK-3172,1 51139U 22005AM  23167.19992033  .00001427  00000-0  10770-3 0  9995,2 51139  53.2173  97.0237 0001108 102.4922 257.6194 15.08850749 79265,6917.848,95.437,540.479,538.946,0.0
51139.0,STARLINK-3172,PAYLOAD,2023-06-16 12:44:49,15.08845123,0.000109,53.2181,95.5342,108.8655,251.2456,4.7304e-05,4.65e-06,0.0,0 STARLINK-3172,1 51139U 22005AM  23167.53112415  .00000465  00000-0  47304-4 0  9996,2 51139  53.2181  95.5342 0001090 108.8655 251.2456 15.08845123 78201,6917.865,95.437,540.484,538.976,0.0
51139.0,STARLINK-3172,PAYLOAD,2023-06-17 04:38:39,15.08854182,0.0001068,53.2174,92.5638,102.0684,258.0428,0.00011457,1.537e-05,0.0,0 STARLINK-3172,1 51139U 22005AM  23168.19351438  .00001537  00000-0  11457-3 0  9999,2 51139  53.2174  92.5638 0001068 102.0684 258.0428 15.08854182 79414,6917.837,95.437,540.441,538.963,0.0
51139.0,STARLINK-3172,PAYLOAD,2023-06-17 12:35:36,15.08835061,0.0001421,53.2175,91.0754,114.1474,245.9667,-9.2015e-06,-4.34e-06,0.0,0 STARLINK-3172,1 51139U 22005AM  23168.52472947 -.00000434  00000-0 -92015-5 0  9993,2 51139  53.2175  91.0754 0001421 114.1474 245.9667 15.08835061 78359,6917.895,95.438,540.744,538.777,0.0
51139.0,STARLINK-3172,PAYLOAD,2023-06-17 18:57:09,15.08838058,0.0001576,53.2173,89.8877,96.8833,263.2338,-7.3044e-05,-1.45e-05,0.0,0 STARLINK-3172,1 51139U 22005AM  23168.78969245 -.00001450  00000-0 -73044-4 0  9992,2 51139  53.2173  89.8877 0001576  96.8833 263.2338 15.08838058 79509,6917.886,95.438,540.842,538.661,0.0
51139.0,STARLINK-3172,PAYLOAD,2023-06-18 04:29:28,15.08833755,0.0001299,53.216,88.1048,110.1018,250.0114,-9.8295e-05,-1.852e-05,0.0,0 STARLINK-3172,1 51139U 22005AM  23169.18713575 -.00001852  00000-0 -98295-4 0  9991,2 51139  53.2160  88.1048 0001299 110.1018 250.0114 15.08833755 78452,6917.899,95.438,540.663,538.866,0.0
51139.0,STARLINK-3172,PAYLOAD,2023-06-19 01:09:28,15.0884179,0.0001128,53.2168,84.2406,92.4159,267.6962,3.5203e-05,2.73e-06,0.0,0 STARLINK-3172,1 51139U 22005AM  23170.04824751  .00000273  00000-0  35203-4 0  9991,2 51139  53.2168  84.2406 0001128  92.4159 267.6962 15.08841790 79694,6917.875,95.437,540.52,538.96,0.0
